CCSDS_OMM_VERS = 2.0
CREATION_DATE  = 
ORIGINATOR     = 

OBJECT_NAME    = STARLINK-35795
OBJECT_ID      = 2025-254X
CENTER_NAME    = EARTH
REF_FRAME      = TEME
TIME_SYSTEM    = UTC
MEAN_ELEMENT_THEORY = SGP/SGP4

EPOCH          = 2025-11-21T16:00:05.000256
MEAN_MOTION    = 15.74141348
ECCENTRICITY   = .0000863
INCLINATION    = 53.1635
RA_OF_ASC_NODE = 19.4720
ARG_OF_PERICENTER = 82.8292
MEAN_ANOMALY   = 275.1469

EPHEMERIS_TYPE = 0
CLASSIFICATION_TYPE = U
NORAD_CAT_ID   = 66369
ELEMENT_SET_NO = 999
REV_AT_EPOCH   = 348
BSTAR          = .35958E-3
MEAN_MOTION_DOT = .5225E-3
MEAN_MOTION_DDOT = 0

CCSDS_OMM_VERS = 2.0
CREATION_DATE  = 
ORIGINATOR     = 

OBJECT_NAME    = STARLINK-35824
OBJECT_ID      = 2025-254Y
CENTER_NAME    = EARTH
REF_FRAME      = TEME
TIME_SYSTEM    = UTC
MEAN_ELEMENT_THEORY = SGP/SGP4

EPOCH          = 2025-11-21T16:00:05.000256
MEAN_MOTION    = 15.74134787
ECCENTRICITY   = .0001174
INCLINATION    = 53.1583
RA_OF_ASC_NODE = 19.4649
ARG_OF_PERICENTER = 93.2467
MEAN_ANOMALY   = 268.5808

EPHEMERIS_TYPE = 0
CLASSIFICATION_TYPE = U
NORAD_CAT_ID   = 66370
ELEMENT_SET_NO = 999
REV_AT_EPOCH   = 350
BSTAR          = .15316E-3
MEAN_MOTION_DOT = .21807E-3
MEAN_MOTION_DDOT = 0

CCSDS_OMM_VERS = 2.0
CREATION_DATE  = 
ORIGINATOR     = 

OBJECT_NAME    = STARLINK-35804
OBJECT_ID      = 2025-254Z
CENTER_NAME    = EARTH
REF_FRAME      = TEME
TIME_SYSTEM    = UTC
MEAN_ELEMENT_THEORY = SGP/SGP4

EPOCH          = 2025-11-21T16:00:05.000256
MEAN_MOTION    = 15.74091871
ECCENTRICITY   = .000112
INCLINATION    = 53.1584
RA_OF_ASC_NODE = 19.4565
ARG_OF_PERICENTER = 108.2283
MEAN_ANOMALY   = 257.4489

EPHEMERIS_TYPE = 0
CLASSIFICATION_TYPE = U
NORAD_CAT_ID   = 66371
ELEMENT_SET_NO = 999
REV_AT_EPOCH   = 353
BSTAR          = .78951E-3
MEAN_MOTION_DOT = .116111E-2
MEAN_MOTION_DDOT = 0

CCSDS_OMM_VERS = 2.0
CREATION_DATE  = 
ORIGINATOR     = 

OBJECT_NAME    = STARLINK-35821
OBJECT_ID      = 2025-254AA
CENTER_NAME    = EARTH
REF_FRAME      = TEME
TIME_SYSTEM    = UTC
MEAN_ELEMENT_THEORY = SGP/SGP4

EPOCH          = 2025-11-21T16:00:05.000256
MEAN_MOTION    = 15.74137918
ECCENTRICITY   = .000101
INCLINATION    = 53.1628
RA_OF_ASC_NODE = 19.4609
ARG_OF_PERICENTER = 84.9318
MEAN_ANOMALY   = 278.8090

EPHEMERIS_TYPE = 0
CLASSIFICATION_TYPE = U
NORAD_CAT_ID   = 66372
ELEMENT_SET_NO = 999
REV_AT_EPOCH   = 353
BSTAR          = .22067E-3
MEAN_MOTION_DOT = .31739E-3
MEAN_MOTION_DDOT = 0

CCSDS_OMM_VERS = 2.0
CREATION_DATE  = 
ORIGINATOR     = 

OBJECT_NAME    = STARLINK-35809
OBJECT_ID      = 2025-254AB
CENTER_NAME    = EARTH
REF_FRAME      = TEME
TIME_SYSTEM    = UTC
MEAN_ELEMENT_THEORY = SGP/SGP4

EPOCH          = 2025-11-21T16:00:05.000256
MEAN_MOTION    = 15.74163040
ECCENTRICITY   = .0001912
INCLINATION    = 53.1583
RA_OF_ASC_NODE = 19.4523
ARG_OF_PERICENTER = 78.6437
MEAN_ANOMALY   = 288.9220

EPHEMERIS_TYPE = 0
CLASSIFICATION_TYPE = U
NORAD_CAT_ID   = 66373
ELEMENT_SET_NO = 999
REV_AT_EPOCH   = 353
BSTAR          = -.14688E-3
MEAN_MOTION_DOT = -.22063E-3
MEAN_MOTION_DDOT = 0

CCSDS_OMM_VERS = 2.0
CREATION_DATE  = 
ORIGINATOR     = 

OBJECT_NAME    = STARLINK-35831
OBJECT_ID      = 2025-254AC
CENTER_NAME    = EARTH
REF_FRAME      = TEME
TIME_SYSTEM    = UTC
MEAN_ELEMENT_THEORY = SGP/SGP4

EPOCH          = 2025-11-21T16:00:05.000256
MEAN_MOTION    = 15.74139811
ECCENTRICITY   = .0001252
INCLINATION    = 53.1586
RA_OF_ASC_NODE = 19.4483
ARG_OF_PERICENTER = 60.6318
MEAN_ANOMALY   = 308.9756

EPHEMERIS_TYPE = 0
CLASSIFICATION_TYPE = U
NORAD_CAT_ID   = 66374
ELEMENT_SET_NO = 999
REV_AT_EPOCH   = 353
BSTAR          = -.47974E-3
MEAN_MOTION_DOT = -.70158E-3
MEAN_MOTION_DDOT = 0

CCSDS_OMM_VERS = 2.0
CREATION_DATE  = 
ORIGINATOR     = 

OBJECT_NAME    = STARLINK-35826
OBJECT_ID      = 2025-254AD
CENTER_NAME    = EARTH
REF_FRAME      = TEME
TIME_SYSTEM    = UTC
MEAN_ELEMENT_THEORY = SGP/SGP4

EPOCH          = 2025-11-21T16:00:05.000256
MEAN_MOTION    = 15.74076051
ECCENTRICITY   = .0001198
INCLINATION    = 53.1584
RA_OF_ASC_NODE = 19.4444
ARG_OF_PERICENTER = 104.4983
MEAN_ANOMALY   = 266.9434

EPHEMERIS_TYPE = 0
CLASSIFICATION_TYPE = U
NORAD_CAT_ID   = 66375
ELEMENT_SET_NO = 999
REV_AT_EPOCH   = 353
BSTAR          = .91071E-3
MEAN_MOTION_DOT = .134232E-2
MEAN_MOTION_DDOT = 0

CCSDS_OMM_VERS = 2.0
CREATION_DATE  = 
ORIGINATOR     = 

OBJECT_NAME    = SHIYAN-32 01
OBJECT_ID      = 2025-255A
CENTER_NAME    = EARTH
REF_FRAME      = TEME
TIME_SYSTEM    = UTC
MEAN_ELEMENT_THEORY = SGP/SGP4

EPOCH          = 2025-11-21T18:10:12.082656
MEAN_MOTION    = 15.41739309
ECCENTRICITY   = .0013067
INCLINATION    = 52.9972
RA_OF_ASC_NODE = 277.7342
ARG_OF_PERICENTER = 335.9376
MEAN_ANOMALY   = 24.1016

EPHEMERIS_TYPE = 0
CLASSIFICATION_TYPE = U
NORAD_CAT_ID   = 66376
ELEMENT_SET_NO = 999
REV_AT_EPOCH   = 211
BSTAR          = .51605E-3
MEAN_MOTION_DOT = .21856E-3
MEAN_MOTION_DDOT = 0

CCSDS_OMM_VERS = 2.0
CREATION_DATE  = 
ORIGINATOR     = 

OBJECT_NAME    = SHIYAN-32 02
OBJECT_ID      = 2025-255C
CENTER_NAME    = EARTH
REF_FRAME      = TEME
TIME_SYSTEM    = UTC
MEAN_ELEMENT_THEORY = SGP/SGP4

EPOCH          = 2025-11-21T18:00:56.542752
MEAN_MOTION    = 15.42830336
ECCENTRICITY   = .0013586
INCLINATION    = 52.9989
RA_OF_ASC_NODE = 277.6946
ARG_OF_PERICENTER = 337.7750
MEAN_ANOMALY   = 22.2664

EPHEMERIS_TYPE = 0
CLASSIFICATION_TYPE = U
NORAD_CAT_ID   = 66378
ELEMENT_SET_NO = 999
REV_AT_EPOCH   = 197
BSTAR          = .98658E-3
MEAN_MOTION_DOT = .43884E-3
MEAN_MOTION_DDOT = 0

CCSDS_OMM_VERS = 2.0
CREATION_DATE  = 
ORIGINATOR     = 

OBJECT_NAME    = STARLINK-35139
OBJECT_ID      = 2025-257A
CENTER_NAME    = EARTH
REF_FRAME      = TEME
TIME_SYSTEM    = UTC
MEAN_ELEMENT_THEORY = SGP/SGP4

EPOCH          = 2025-11-21T08:54:09.514080
MEAN_MOTION    = 15.78848598
ECCENTRICITY   = .0001055
INCLINATION    = 53.1540
RA_OF_ASC_NODE = 6.9789
ARG_OF_PERICENTER = 21.3039
MEAN_ANOMALY   = 338.8026

EPHEMERIS_TYPE = 0
CLASSIFICATION_TYPE = U
NORAD_CAT_ID   = 66380
ELEMENT_SET_NO = 999
REV_AT_EPOCH   = 299
BSTAR          = -.32779E-2
MEAN_MOTION_DOT = -.553953E-2
MEAN_MOTION_DDOT = 0

