STARLINK-35795          
1 66369U 25254X   25325.66672454  .00052250  00000+0  35958-3 0  9991
2 66369  53.1635  19.4720 0000863  82.8292 275.1469 15.74141348  3483
STARLINK-35824          
1 66370U 25254Y   25325.66672454  .00021807  00000+0  15316-3 0  9993
2 66370  53.1583  19.4649 0001174  93.2467 268.5808 15.74134787  3508
STARLINK-35804          
1 66371U 25254Z   25325.66672454  .00116111  00000+0  78951-3 0  9991
2 66371  53.1584  19.4565 0001120 108.2283 257.4489 15.74091871  3532
STARLINK-35821          
1 66372U 25254AA  25325.66672454  .00031739  00000+0  22067-3 0  9991
2 66372  53.1628  19.4609 0001010  84.9318 278.8090 15.74137918  3536
STARLINK-35809          
1 66373U 25254AB  25325.66672454 -.00022063  00000+0 -14688-3 0  9994
2 66373  53.1583  19.4523 0001912  78.6437 288.9220 15.74163040  3537
STARLINK-35831          
1 66374U 25254AC  25325.66672454 -.00070158  00000+0 -47974-3 0  9997
2 66374  53.1586  19.4483 0001252  60.6318 308.9756 15.74139811  3538
STARLINK-35826          
1 66375U 25254AD  25325.66672454  .00134232  00000+0  91071-3 0  9997
2 66375  53.1584  19.4444 0001198 104.4983 266.9434 15.74076051  3530
SHIYAN-32 01            
1 66376U 25255A   25325.75708429  .00021856  00000+0  51605-3 0  9997
2 66376  52.9972 277.7342 0013067 335.9376  24.1016 15.41739309  2119
SHIYAN-32 02            
1 66378U 25255C   25325.75065443  .00043884  00000+0  98658-3 0  9995
2 66378  52.9989 277.6946 0013586 337.7750  22.2664 15.42830336  1974
STARLINK-35139          
1 66380U 25257A   25325.37094345 -.00553953  00000+0 -32779-2 0  9997
2 66380  53.1540   6.9789 0001055  21.3039 338.8026 15.78848598  2994
